CCSDS_OMM_VERS = 2.0
CREATION_DATE  = 
ORIGINATOR     = 

OBJECT_NAME    = IDEFIX & ARIANE 42P R/B
OBJECT_ID      = 2002-021B
CENTER_NAME    = EARTH
REF_FRAME      = TEME
TIME_SYSTEM    = UTC
MEAN_ELEMENT_THEORY = SGP/SGP4

EPOCH          = 2026-02-24T10:05:55.492224
MEAN_MOTION    = 14.31015559
ECCENTRICITY   = .0010886
INCLINATION    = 98.5858
RA_OF_ASC_NODE = 354.1869
ARG_OF_PERICENTER = 223.1821
MEAN_ANOMALY   = 136.8509

EPHEMERIS_TYPE = 0
CLASSIFICATION_TYPE = U
NORAD_CAT_ID   = 27422
ELEMENT_SET_NO = 999
REV_AT_EPOCH   = 24212
BSTAR          = .12419E-3
MEAN_MOTION_DOT = .283E-5
MEAN_MOTION_DDOT = 0

CCSDS_OMM_VERS = 2.0
CREATION_DATE  = 
ORIGINATOR     = 

OBJECT_NAME    = AQUA
OBJECT_ID      = 2002-022A
CENTER_NAME    = EARTH
REF_FRAME      = TEME
TIME_SYSTEM    = UTC
MEAN_ELEMENT_THEORY = SGP/SGP4

EPOCH          = 2026-02-24T11:38:16.520352
MEAN_MOTION    = 14.61940343
ECCENTRICITY   = .0000919
INCLINATION    = 98.4150
RA_OF_ASC_NODE = 22.6119
ARG_OF_PERICENTER = 48.6691
MEAN_ANOMALY   = 63.1068

EPHEMERIS_TYPE = 0
CLASSIFICATION_TYPE = U
NORAD_CAT_ID   = 27424
ELEMENT_SET_NO = 999
REV_AT_EPOCH   = 26680
BSTAR          = .22506E-3
MEAN_MOTION_DOT = .1078E-4
MEAN_MOTION_DDOT = 0

CCSDS_OMM_VERS = 2.0
CREATION_DATE  = 
ORIGINATOR     = 

OBJECT_NAME    = CZ-4B R/B
OBJECT_ID      = 2002-024C
CENTER_NAME    = EARTH
REF_FRAME      = TEME
TIME_SYSTEM    = UTC
MEAN_ELEMENT_THEORY = SGP/SGP4

EPOCH          = 2026-02-24T03:08:51.309888
MEAN_MOTION    = 14.14544903
ECCENTRICITY   = .00510289
INCLINATION    = 98.8872
RA_OF_ASC_NODE = 108.6042
ARG_OF_PERICENTER = 62.2489
MEAN_ANOMALY   = 323.2269

EPHEMERIS_TYPE = 0
CLASSIFICATION_TYPE = U
NORAD_CAT_ID   = 27432
ELEMENT_SET_NO = 999
REV_AT_EPOCH   = 22732
BSTAR          = .34465697E-4
MEAN_MOTION_DOT = .23E-6
MEAN_MOTION_DDOT = 0

CCSDS_OMM_VERS = 2.0
CREATION_DATE  = 
ORIGINATOR     = 

OBJECT_NAME    = MIDORI II (ADEOS-II)
OBJECT_ID      = 2002-056A
CENTER_NAME    = EARTH
REF_FRAME      = TEME
TIME_SYSTEM    = UTC
MEAN_ELEMENT_THEORY = SGP/SGP4

EPOCH          = 2026-02-24T12:03:57.554208
MEAN_MOTION    = 14.29273701
ECCENTRICITY   = .0001995
INCLINATION    = 98.7744
RA_OF_ASC_NODE = 13.8914
ARG_OF_PERICENTER = 61.2642
MEAN_ANOMALY   = 298.8740

EPHEMERIS_TYPE = 0
CLASSIFICATION_TYPE = U
NORAD_CAT_ID   = 27597
ELEMENT_SET_NO = 999
REV_AT_EPOCH   = 20841
BSTAR          = .1214E-3
MEAN_MOTION_DOT = .263E-5
MEAN_MOTION_DDOT = 0

CCSDS_OMM_VERS = 2.0
CREATION_DATE  = 
ORIGINATOR     = 

OBJECT_NAME    = H-2A R/B
OBJECT_ID      = 2002-056E
CENTER_NAME    = EARTH
REF_FRAME      = TEME
TIME_SYSTEM    = UTC
MEAN_ELEMENT_THEORY = SGP/SGP4

EPOCH          = 2026-02-24T12:39:57.230208
MEAN_MOTION    = 14.33750765
ECCENTRICITY   = .0069677
INCLINATION    = 98.3177
RA_OF_ASC_NODE = 16.3964
ARG_OF_PERICENTER = 199.9324
MEAN_ANOMALY   = 273.7598

EPHEMERIS_TYPE = 0
CLASSIFICATION_TYPE = U
NORAD_CAT_ID   = 27601
ELEMENT_SET_NO = 999
REV_AT_EPOCH   = 21222
BSTAR          = .11392E-3
MEAN_MOTION_DOT = .283E-5
MEAN_MOTION_DDOT = 0

CCSDS_OMM_VERS = 2.0
CREATION_DATE  = 
ORIGINATOR     = 

OBJECT_NAME    = CZ-4B R/B
OBJECT_ID      = 2003-049C
CENTER_NAME    = EARTH
REF_FRAME      = TEME
TIME_SYSTEM    = UTC
MEAN_ELEMENT_THEORY = SGP/SGP4

EPOCH          = 2026-02-24T10:55:22.092384
MEAN_MOTION    = 14.55004985
ECCENTRICITY   = .0046994
INCLINATION    = 98.6866
RA_OF_ASC_NODE = 49.8422
ARG_OF_PERICENTER = 272.2488
MEAN_ANOMALY   = 87.3327

EPHEMERIS_TYPE = 0
CLASSIFICATION_TYPE = U
NORAD_CAT_ID   = 28059
ELEMENT_SET_NO = 999
REV_AT_EPOCH   = 18467
BSTAR          = .1078E-3
MEAN_MOTION_DOT = .419E-5
MEAN_MOTION_DDOT = 0

CCSDS_OMM_VERS = 2.0
CREATION_DATE  = 
ORIGINATOR     = 

OBJECT_NAME    = CZ-2C R/B
OBJECT_ID      = 2004-012C
CENTER_NAME    = EARTH
REF_FRAME      = TEME
TIME_SYSTEM    = UTC
MEAN_ELEMENT_THEORY = SGP/SGP4

EPOCH          = 2026-02-24T04:04:38.804448
MEAN_MOTION    = 15.62819312
ECCENTRICITY   = .00140903
INCLINATION    = 97.7264
RA_OF_ASC_NODE = 119.1976
ARG_OF_PERICENTER = 3.8799
MEAN_ANOMALY   = 356.2565

EPHEMERIS_TYPE = 0
CLASSIFICATION_TYPE = U
NORAD_CAT_ID   = 28222
ELEMENT_SET_NO = 999
REV_AT_EPOCH   = 20216
BSTAR          = .5390125E-3
MEAN_MOTION_DOT = .4884E-3
MEAN_MOTION_DDOT = 0

CCSDS_OMM_VERS = 2.0
CREATION_DATE  = 
ORIGINATOR     = 

OBJECT_NAME    = SL-16 R/B
OBJECT_ID      = 2004-021B
CENTER_NAME    = EARTH
REF_FRAME      = TEME
TIME_SYSTEM    = UTC
MEAN_ELEMENT_THEORY = SGP/SGP4

EPOCH          = 2026-02-24T12:23:56.964192
MEAN_MOTION    = 14.14599042
ECCENTRICITY   = .0003397
INCLINATION    = 70.9989
RA_OF_ASC_NODE = 260.1392
ARG_OF_PERICENTER = 39.3865
MEAN_ANOMALY   = 320.7504

EPHEMERIS_TYPE = 0
CLASSIFICATION_TYPE = U
NORAD_CAT_ID   = 28353
ELEMENT_SET_NO = 999
REV_AT_EPOCH   = 12097
BSTAR          = .87665E-4
MEAN_MOTION_DOT = .121E-5
MEAN_MOTION_DDOT = 0

CCSDS_OMM_VERS = 2.0
CREATION_DATE  = 
ORIGINATOR     = 

OBJECT_NAME    = CZ-4B R/B
OBJECT_ID      = 2004-035C
CENTER_NAME    = EARTH
REF_FRAME      = TEME
TIME_SYSTEM    = UTC
MEAN_ELEMENT_THEORY = SGP/SGP4

EPOCH          = 2026-02-24T08:40:44.157216
MEAN_MOTION    = 15.28792067
ECCENTRICITY   = .0032678
INCLINATION    = 97.3529
RA_OF_ASC_NODE = 89.7656
ARG_OF_PERICENTER = 19.2746
MEAN_ANOMALY   = 340.9722

EPHEMERIS_TYPE = 0
CLASSIFICATION_TYPE = U
NORAD_CAT_ID   = 28415
ELEMENT_SET_NO = 999
REV_AT_EPOCH   = 17787
BSTAR          = .3072E-3
MEAN_MOTION_DOT = .8659E-4
MEAN_MOTION_DDOT = 0

CCSDS_OMM_VERS = 2.0
CREATION_DATE  = 
ORIGINATOR     = 

OBJECT_NAME    = CZ-2C R/B
OBJECT_ID      = 2004-046B
CENTER_NAME    = EARTH
REF_FRAME      = TEME
TIME_SYSTEM    = UTC
MEAN_ELEMENT_THEORY = SGP/SGP4

EPOCH          = 2026-02-24T08:57:33.590880
MEAN_MOTION    = 14.26987132
ECCENTRICITY   = .0139067
INCLINATION    = 98.1989
RA_OF_ASC_NODE = 331.1851
ARG_OF_PERICENTER = 193.7898
MEAN_ANOMALY   = 165.9470

EPHEMERIS_TYPE = 0
CLASSIFICATION_TYPE = U
NORAD_CAT_ID   = 28480
ELEMENT_SET_NO = 999
REV_AT_EPOCH   = 10660
BSTAR          = .59065E-4
MEAN_MOTION_DOT = .118E-5
MEAN_MOTION_DDOT = 0

CCSDS_OMM_VERS = 2.0
CREATION_DATE  = 
ORIGINATOR     = 

OBJECT_NAME    = ARIANE 5 R/B
OBJECT_ID      = 2004-049H
CENTER_NAME    = EARTH
REF_FRAME      = TEME
TIME_SYSTEM    = UTC
MEAN_ELEMENT_THEORY = SGP/SGP4

EPOCH          = 2026-02-24T10:16:51.283776
MEAN_MOTION    = 14.85237559
ECCENTRICITY   = .0084863
INCLINATION    = 98.2606
RA_OF_ASC_NODE = 223.3912
ARG_OF_PERICENTER = 34.8094
MEAN_ANOMALY   = 325.8630

EPHEMERIS_TYPE = 0
CLASSIFICATION_TYPE = U
NORAD_CAT_ID   = 28499
ELEMENT_SET_NO = 999
REV_AT_EPOCH   = 14382
BSTAR          = .97111E-4
MEAN_MOTION_DOT = .824E-5
MEAN_MOTION_DDOT = 0

CCSDS_OMM_VERS = 2.0
CREATION_DATE  = 
ORIGINATOR     = 

OBJECT_NAME    = CZ-2D R/B
OBJECT_ID      = 2005-024B
CENTER_NAME    = EARTH
REF_FRAME      = TEME
TIME_SYSTEM    = UTC
MEAN_ELEMENT_THEORY = SGP/SGP4

EPOCH          = 2026-02-24T11:47:07.360224
MEAN_MOTION    = 15.58860801
ECCENTRICITY   = .0007462
INCLINATION    = 97.3617
RA_OF_ASC_NODE = 70.1667
ARG_OF_PERICENTER = 78.4118
MEAN_ANOMALY   = 281.7975

EPHEMERIS_TYPE = 0
CLASSIFICATION_TYPE = U
NORAD_CAT_ID   = 28738
ELEMENT_SET_NO = 999
REV_AT_EPOCH   = 13772
BSTAR          = .48838E-3
MEAN_MOTION_DOT = .37837E-3
MEAN_MOTION_DDOT = 0

